ALOS (DAICHI)           
1 28931U 06002A   26089.47014661  .00001731  00000+0  29772-3 0  9996
2 28931  98.1251  45.3268 0000918 109.9776 250.1529 14.69874105 76536
H-2A R/B                
1 28932U 06002B   26089.39177968  .00013995  00000+0  68904-3 0  9993
2 28932  98.2444 238.2081 0052456 170.2321 189.9943 15.16885803 97575
RESURS-DK 1             
1 29228U 06021A   26089.56191797  .00003014  00000+0  17699-3 0  9994
2 29228  69.9339 183.0312 0001393  48.1234 312.0050 15.12874434 90683
CZ-4B R/B               
1 29507U 06046C   26089.38702298  .00006508  00000+0  32723-3 0  9991
2 29507  97.5555 134.2388 0032853 193.0829 166.9555 15.17114726 63183
CZ-2C R/B               
1 31114U 07010B   26089.57916656  .00000169  00000+0  96956-4 0  9992
2 31114  98.4001 201.8132 0058135 232.7310 126.8558 14.20253869982689
COSMO-SKYMED 1          
1 31598U 07023A   26089.59128653  .00004807  00000+0  42628-3 0  9995
2 31598  97.8869 280.7941 0001095 103.0080 257.1264 14.96687194 18037
COSMOS 2428             
1 31792U 07029A   26089.56082914 -.00000018  00000+0  15815-4 0  9993
2 31792  70.9430 159.5394 0009713 255.5249 104.4795 14.12948512967048
SL-16 R/B               
1 31793U 07029B   26089.58167233 -.00000016  00000+0  16505-4 0  9999
2 31793  70.9746 128.4698 0002785 277.8941 244.8407 14.14843662968322
KORONAS-FOTON           
1 33504U 09003A   26089.50874498  .00018100  00000+0  39659-3 0  9991
2 33504  82.4274 254.2214 0011671  82.0695 278.1877 15.43890614948956
CZ-2C R/B               
1 37731U 11030B   26089.49678559  .00001873  00000+0  24180-3 0  9990
2 37731  97.8579  46.3492 0051031 283.1622 199.2649 14.81295610793174
H-2A R/B                
1 38341U 12025E   26089.47362053  .00003994  00000+0  36207-3 0  9999
2 38341  98.4766  58.1904 0042830 244.0709 115.6093 14.95316131751328
SHIJIAN-16 (SJ-16)      
1 39358U 13057A   26089.61159652  .00001374  00000+0  13667-3 0  9994
2 39358  74.9725 145.4828 0015295  58.2722 301.9954 14.92426790674624
SL-4 R/B                
1 39679U 14021B   26089.14114099  .00023819  00000+0  50981-3 0  9994
2 39679  51.6054 237.4532 0095266 177.5547 182.5922 15.39903339659427
ALOS-2                  
1 39766U 14029A   26089.54966061  .00003695  00000+0  50155-3 0  9990
2 39766  97.9189 187.8434 0001858 104.1815 255.9604 14.79456870639957
YAOGAN-29               
1 41038U 15069A   26089.57574104  .00000963  00000+0  12507-3 0  9990
2 41038  98.0117 118.0588 0000329 356.4376   3.6835 14.83019477558976
ASTRO-H (HITOMI)        
1 41337U 16012A   26089.58771631  .00004225  00000+0  24690-3 0  9997
2 41337  30.9991 221.6731 0009610 182.0837 177.9762 15.10137543555394
